OBJECT_NAME,OBJECT_ID,EPOCH,MEAN_MOTION,ECCENTRICITY,INCLINATION,RA_OF_ASC_NODE,ARG_OF_PERICENTER,MEAN_ANOMALY,EPHEMERIS_TYPE,CLASSIFICATION_TYPE,NORAD_CAT_ID,ELEMENT_SET_NO,REV_AT_EPOCH,BSTAR,MEAN_MOTION_DOT,MEAN_MOTION_DDOT
ONEWEB-0068,2020-020Y,2026-06-30T23:06:47.633184,13.11417342,.00016461,87.8887,18.3218,84.6128,275.5188,0,U,45446,999,30440,-.13221623E-2,-.456E-5,0
ONEWEB-0046,2020-020Z,2026-06-30T22:54:46.798848,13.11416279,.0001821,87.8877,18.3283,79.2139,280.9194,0,U,45447,999,30441,-.13535646E-2,-.467E-5,0
ONEWEB-0063,2020-020AA,2026-06-30T12:37:17.829120,13.11417191,.00020782,87.8889,18.4136,83.1303,277.0061,0,U,45448,999,30444,.92410978E-3,.34E-5,0
ONEWEB-0019,2020-020AB,2026-06-30T11:43:10.373664,13.11415055,.00018516,87.8880,18.4066,92.8458,267.2882,0,U,45449,999,30428,-.12308119E-2,-.423E-5,0
ONEWEB-0094,2020-020AC,2026-06-30T22:44:14.702496,13.17648576,.00016557,87.9142,3.1124,93.6291,266.5030,0,U,45450,999,30812,.12605914E-3,.62E-6,0
ONEWEB-0087,2020-020AD,2026-06-30T11:01:40.880352,13.11416564,.00015225,87.8897,18.4019,83.9174,276.2128,0,U,45451,999,30432,.16842648E-2,.61E-5,0
ONEWEB-0082,2020-020AE,2026-06-30T12:46:40.315584,13.11416192,.0001554,87.8889,18.4029,73.8810,286.2489,0,U,45452,999,30442,.11060975E-2,.405E-5,0
ONEWEB-0050,2020-020AF,2026-06-30T13:41:52.672992,14.90430207,.00009105,88.9288,231.3936,332.4514,27.6666,0,U,45453,999,34237,.20536558E-3,.2021E-4,0
ONEWEB-0034,2020-020AG,2026-06-30T11:50:54.032352,13.11415253,.00018272,87.8885,18.4201,87.1336,273.0001,0,U,45454,999,30433,-.13996921E-2,-.483E-5,0
ONEWEB-0060,2020-020AH,2026-06-30T12:35:52.727712,13.11417560,.00008044,87.8882,18.4105,85.8793,274.2427,0,U,45455,999,30429,.96240986E-3,.354E-5,0
ONEWEB-0086,2020-020AJ,2026-06-30T23:04:21.129888,13.11417550,.00012956,87.8888,18.3206,109.7334,250.3934,0,U,45456,999,30441,-.15159882E-2,-.525E-5,0
ONEWEB-0088,2020-020AK,2026-06-30T13:23:28.130208,13.11413919,.0001998,87.8893,18.3744,76.6202,283.5149,0,U,45457,999,30429,-.35378082E-3,-.113E-5,0
ONEWEB-0102,2020-100A,2026-06-30T20:33:34.992000,13.12441762,.00017811,87.8947,347.9556,102.6971,257.4357,0,U,47258,999,26652,-.1594224E-3,-.45E-6,0
ONEWEB-0109,2020-100B,2026-06-30T20:45:46.687680,13.12441921,.00019344,87.8958,347.9386,96.7625,263.3723,0,U,47259,999,26635,-.89147874E-3,-.308E-5,0
ONEWEB-0110,2020-100C,2026-06-30T21:24:49.648320,13.12444258,.00015756,87.8957,347.9175,98.4423,261.6884,0,U,47260,999,26652,-.23457938E-3,-.72E-6,0
ONEWEB-0111,2020-100D,2026-06-30T11:10:02.598240,13.12441621,.00017205,87.8956,348.0210,92.1350,267.9976,0,U,47261,999,26630,.64017524E-3,.243E-5,0
ONEWEB-0114,2020-100E,2026-06-30T21:02:50.556192,13.12443896,.00020066,87.8959,347.9370,96.6939,263.4418,0,U,47262,999,26631,-.19698093E-2,-.696E-5,0
ONEWEB-0117,2020-100F,2026-06-30T20:50:38.609952,13.12441277,.00018127,87.8955,347.9291,94.1218,266.0118,0,U,47263,999,26632,-.10385196E-2,-.361E-5,0
ONEWEB-0118,2020-100G,2026-06-30T21:39:26.727552,13.12443025,.00021122,87.8955,347.9251,88.0829,272.0542,0,U,47264,999,26652,.40299633E-3,.158E-5,0
ONEWEB-0119,2020-100H,2026-06-30T22:16:02.608608,13.12440796,.00018542,87.8946,347.9353,94.1743,265.9597,0,U,47265,999,26650,.29826077E-3,.12E-5,0
ONEWEB-0120,2020-100J,2026-06-30T11:51:41.266368,13.12442332,.00020032,87.8946,348.0232,96.8757,263.2599,0,U,47266,999,26647,-.10520419E-2,-.366E-5,0
ONEWEB-0121,2020-100K,2026-06-30T20:43:19.421472,13.12440888,.00015524,87.8957,347.9367,88.2914,271.8393,0,U,47267,999,26643,-.71890985E-3,-.246E-5,0
ONEWEB-0122,2020-100L,2026-06-30T22:24:34.880256,13.12442869,.00018518,87.8959,347.9277,98.6084,261.5254,0,U,47268,999,26635,-.18807344E-3,-.55E-6,0
ONEWEB-0123,2020-100M,2026-06-30T22:18:28.603008,13.12440675,.00019124,87.8947,347.9341,91.3407,268.7941,0,U,47269,999,26649,.13924966E-3,.63E-6,0
ONEWEB-0124,2020-100N,2026-06-30T11:05:09.306528,13.12440944,.00017387,87.8943,348.0300,91.4959,268.6369,0,U,47270,999,26631,.89739274E-3,.336E-5,0
ONEWEB-0125,2020-100P,2026-06-30T21:32:07.728288,13.12443329,.00017782,87.8955,347.9284,82.8623,277.2707,0,U,47271,999,26643,.41903457E-3,.163E-5,0
ONEWEB-0126,2020-100Q,2026-06-30T11:02:55.694112,13.12442748,.00019364,87.8949,348.0300,94.8443,265.2906,0,U,47272,999,26644,.10173321E-2,.379E-5,0
ONEWEB-0127,2020-100R,2026-06-30T23:02:23.463456,13.12443228,.00019286,87.8946,347.9287,95.5986,264.5362,0,U,47273,999,26653,-.87366242E-3,-.302E-5,0
ONEWEB-0128,2020-100S,2026-06-30T21:44:19.959648,13.12442898,.00015554,87.8946,347.9533,99.9022,260.2283,0,U,47274,999,26654,.9874122E-3,.368E-5,0
ONEWEB-0129,2020-100T,2026-06-30T23:04:49.310112,13.12442884,.00028476,87.8955,347.9176,105.7087,254.4356,0,U,47275,999,26648,-.12516383E-2,-.438E-5,0
