[
  {
    "name": "ONEWEB-0068",
    "noradId": "45446",
    "line1": "1 45446U 20020Y   26181.96305131 -.00000456  00000+0 -13222-2 0  9991",
    "line2": "2 45446  87.8887  18.3218 0001646  84.6128 275.5188 13.11417342304404"
  },
  {
    "name": "ONEWEB-0046",
    "noradId": "45447",
    "line1": "1 45447U 20020Z   26181.95470832 -.00000467  00000+0 -13536-2 0  9992",
    "line2": "2 45447  87.8877  18.3283 0001821  79.2139 280.9194 13.11416279304419"
  },
  {
    "name": "ONEWEB-0063",
    "noradId": "45448",
    "line1": "1 45448U 20020AA  26181.52590080  .00000340  00000+0  92411-3 0  9992",
    "line2": "2 45448  87.8889  18.4136 0002078  83.1303 277.0061 13.11417191304440"
  },
  {
    "name": "ONEWEB-0019",
    "noradId": "45449",
    "line1": "1 45449U 20020AB  26181.48831451 -.00000423  00000+0 -12308-2 0  9998",
    "line2": "2 45449  87.8880  18.4066 0001851  92.8458 267.2882 13.11415055304281"
  },
  {
    "name": "ONEWEB-0094",
    "noradId": "45450",
    "line1": "1 45450U 20020AC  26181.94739239  .00000062  00000+0  12606-3 0  9991",
    "line2": "2 45450  87.9142   3.1124 0001655  93.6291 266.5030 13.17648576308123"
  },
  {
    "name": "ONEWEB-0087",
    "noradId": "45451",
    "line1": "1 45451U 20020AD  26181.45950093  .00000610  00000+0  16843-2 0  9996",
    "line2": "2 45451  87.8897  18.4019 0001522  83.9174 276.2128 13.11416564304325"
  },
  {
    "name": "ONEWEB-0082",
    "noradId": "45452",
    "line1": "1 45452U 20020AE  26181.53241106  .00000405  00000+0  11061-2 0  9993",
    "line2": "2 45452  87.8889  18.4029 0001554  73.8810 286.2489 13.11416192304427"
  },
  {
    "name": "ONEWEB-0050",
    "noradId": "45453",
    "line1": "1 45453U 20020AF  26181.57074853  .00002021  00000+0  20537-3 0  9996",
    "line2": "2 45453  88.9288 231.3936 0000910 332.4514  27.6666 14.90430207342377"
  },
  {
    "name": "ONEWEB-0034",
    "noradId": "45454",
    "line1": "1 45454U 20020AG  26181.49368093 -.00000483  00000+0 -13997-2 0  9993",
    "line2": "2 45454  87.8885  18.4201 0001827  87.1336 273.0001 13.11415253304332"
  },
  {
    "name": "ONEWEB-0060",
    "noradId": "45455",
    "line1": "1 45455U 20020AH  26181.52491583  .00000354  00000+0  96241-3 0  9998",
    "line2": "2 45455  87.8882  18.4105 0000804  85.8793 274.2427 13.11417560304292"
  },
  {
    "name": "ONEWEB-0086",
    "noradId": "45456",
    "line1": "1 45456U 20020AJ  26181.96135567 -.00000525  00000+0 -15160-2 0  9996",
    "line2": "2 45456  87.8888  18.3206 0001295 109.7334 250.3934 13.11417550304413"
  },
  {
    "name": "ONEWEB-0088",
    "noradId": "45457",
    "line1": "1 45457U 20020AK  26181.55796447 -.00000113  00000+0 -35378-3 0  9999",
    "line2": "2 45457  87.8893  18.3744 0001998  76.6202 283.5149 13.11413919304290"
  },
  {
    "name": "ONEWEB-0102",
    "noradId": "47258",
    "line1": "1 47258U 20100A   26181.85665500 -.00000045  00000+0 -15942-3 0  9996",
    "line2": "2 47258  87.8947 347.9556 0001781 102.6971 257.4357 13.12441762266528"
  },
  {
    "name": "ONEWEB-0109",
    "noradId": "47259",
    "line1": "1 47259U 20100B   26181.86512370 -.00000308  00000+0 -89148-3 0  9995",
    "line2": "2 47259  87.8958 347.9386 0001934  96.7625 263.3723 13.12441921266352"
  },
  {
    "name": "ONEWEB-0110",
    "noradId": "47260",
    "line1": "1 47260U 20100C   26181.89224130 -.00000072  00000+0 -23458-3 0  9994",
    "line2": "2 47260  87.8957 347.9175 0001575  98.4423 261.6884 13.12444258266529"
  },
  {
    "name": "ONEWEB-0111",
    "noradId": "47261",
    "line1": "1 47261U 20100D   26181.46530785  .00000243  00000+0  64018-3 0  9999",
    "line2": "2 47261  87.8956 348.0210 0001720  92.1350 267.9976 13.12441621266301"
  },
  {
    "name": "ONEWEB-0114",
    "noradId": "47262",
    "line1": "1 47262U 20100E   26181.87697403 -.00000696  00000+0 -19698-2 0  9993",
    "line2": "2 47262  87.8959 347.9370 0002006  96.6939 263.4418 13.12443896266319"
  },
  {
    "name": "ONEWEB-0117",
    "noradId": "47263",
    "line1": "1 47263U 20100F   26181.86850243 -.00000361  00000+0 -10385-2 0  9999",
    "line2": "2 47263  87.8955 347.9291 0001812  94.1218 266.0118 13.12441277266323"
  },
  {
    "name": "ONEWEB-0118",
    "noradId": "47264",
    "line1": "1 47264U 20100G   26181.90239268  .00000158  00000+0  40300-3 0  9996",
    "line2": "2 47264  87.8955 347.9251 0002112  88.0829 272.0542 13.12443025266527"
  },
  {
    "name": "ONEWEB-0119",
    "noradId": "47265",
    "line1": "1 47265U 20100H   26181.92780797  .00000120  00000+0  29826-3 0  9996",
    "line2": "2 47265  87.8946 347.9353 0001854  94.1743 265.9597 13.12440796266507"
  },
  {
    "name": "ONEWEB-0120",
    "noradId": "47266",
    "line1": "1 47266U 20100J   26181.49422762 -.00000366  00000+0 -10520-2 0  9998",
    "line2": "2 47266  87.8946 348.0232 0002003  96.8757 263.2599 13.12442332266474"
  },
  {
    "name": "ONEWEB-0121",
    "noradId": "47267",
    "line1": "1 47267U 20100K   26181.86341923 -.00000246  00000+0 -71891-3 0  9995",
    "line2": "2 47267  87.8957 347.9367 0001552  88.2914 271.8393 13.12440888266439"
  },
  {
    "name": "ONEWEB-0122",
    "noradId": "47268",
    "line1": "1 47268U 20100L   26181.93373704 -.00000055  00000+0 -18807-3 0  9992",
    "line2": "2 47268  87.8959 347.9277 0001851  98.6084 261.5254 13.12442869266351"
  },
  {
    "name": "ONEWEB-0123",
    "noradId": "47269",
    "line1": "1 47269U 20100M   26181.92949772  .00000063  00000+0  13925-3 0  9999",
    "line2": "2 47269  87.8947 347.9341 0001912  91.3407 268.7941 13.12440675266498"
  },
  {
    "name": "ONEWEB-0124",
    "noradId": "47270",
    "line1": "1 47270U 20100N   26181.46191327  .00000336  00000+0  89739-3 0  9994",
    "line2": "2 47270  87.8943 348.0300 0001738  91.4959 268.6369 13.12440944266315"
  },
  {
    "name": "ONEWEB-0125",
    "noradId": "47271",
    "line1": "1 47271U 20100P   26181.89731167  .00000163  00000+0  41903-3 0  9993",
    "line2": "2 47271  87.8955 347.9284 0001778  82.8623 277.2707 13.12443329266439"
  },
  {
    "name": "ONEWEB-0126",
    "noradId": "47272",
    "line1": "1 47272U 20100Q   26181.46036683  .00000379  00000+0  10173-2 0  9991",
    "line2": "2 47272  87.8949 348.0300 0001936  94.8443 265.2906 13.12442748266446"
  },
  {
    "name": "ONEWEB-0127",
    "noradId": "47273",
    "line1": "1 47273U 20100R   26181.95999379 -.00000302  00000+0 -87366-3 0  9993",
    "line2": "2 47273  87.8946 347.9287 0001928  95.5986 264.5362 13.12443228266539"
  },
  {
    "name": "ONEWEB-0128",
    "noradId": "47274",
    "line1": "1 47274U 20100S   26181.90578657  .00000368  00000+0  98741-3 0  9990",
    "line2": "2 47274  87.8946 347.9533 0001555  99.9022 260.2283 13.12442898266547"
  },
  {
    "name": "ONEWEB-0129",
    "noradId": "47275",
    "line1": "1 47275U 20100T   26181.96168183 -.00000438  00000+0 -12516-2 0  9991",
    "line2": "2 47275  87.8955 347.9176 0002847 105.7087 254.4356 13.12442884266487"
  }
]